<?xml version="1.0" encoding="UTF-8"?>
<ndm xmlns:xsi="http://www.w3.org/2001/XMLSchema-instance" xsi:noNamespaceSchemaLocation="https://sanaregistry.org/r/ndmxml_unqualified/ndmxml-2.0.0-master-2.0.xsd">
<omm id="CCSDS_OMM_VERS" version="2.0">
<header><CREATION_DATE/><ORIGINATOR/></header><body><segment><metadata><OBJECT_NAME>STARLINK-33947</OBJECT_NAME><OBJECT_ID>2025-091N</OBJECT_ID><CENTER_NAME>EARTH</CENTER_NAME><REF_FRAME>TEME</REF_FRAME><TIME_SYSTEM>UTC</TIME_SYSTEM><MEAN_ELEMENT_THEORY>SGP4</MEAN_ELEMENT_THEORY></metadata><data><meanElements><EPOCH>2025-05-07T22:00:01.999584</EPOCH><MEAN_MOTION>15.93852944</MEAN_MOTION><ECCENTRICITY>.0001833</ECCENTRICITY><INCLINATION>43.0009</INCLINATION><RA_OF_ASC_NODE>348.7792</RA_OF_ASC_NODE><ARG_OF_PERICENTER>258.5116</ARG_OF_PERICENTER><MEAN_ANOMALY>3.3064</MEAN_ANOMALY></meanElements><tleParameters><EPHEMERIS_TYPE>0</EPHEMERIS_TYPE><CLASSIFICATION_TYPE>U</CLASSIFICATION_TYPE><NORAD_CAT_ID>63787</NORAD_CAT_ID><ELEMENT_SET_NO>999</ELEMENT_SET_NO><REV_AT_EPOCH>203</REV_AT_EPOCH><BSTAR>-.22067E-2</BSTAR><MEAN_MOTION_DOT>-.839039E-2</MEAN_MOTION_DOT><MEAN_MOTION_DDOT>.22355E-3</MEAN_MOTION_DDOT></tleParameters></data></segment></body></omm>
<omm id="CCSDS_OMM_VERS" version="2.0">
<header><CREATION_DATE/><ORIGINATOR/></header><body><segment><metadata><OBJECT_NAME>STARLINK-33882</OBJECT_NAME><OBJECT_ID>2025-091P</OBJECT_ID><CENTER_NAME>EARTH</CENTER_NAME><REF_FRAME>TEME</REF_FRAME><TIME_SYSTEM>UTC</TIME_SYSTEM><MEAN_ELEMENT_THEORY>SGP4</MEAN_ELEMENT_THEORY></metadata><data><meanElements><EPOCH>2025-05-08T06:00:02.000160</EPOCH><MEAN_MOTION>15.93454564</MEAN_MOTION><ECCENTRICITY>.0002106</ECCENTRICITY><INCLINATION>43.0007</INCLINATION><RA_OF_ASC_NODE>346.6938</RA_OF_ASC_NODE><ARG_OF_PERICENTER>262.3728</ARG_OF_PERICENTER><MEAN_ANOMALY>115.9875</MEAN_ANOMALY></meanElements><tleParameters><EPHEMERIS_TYPE>0</EPHEMERIS_TYPE><CLASSIFICATION_TYPE>U</CLASSIFICATION_TYPE><NORAD_CAT_ID>63788</NORAD_CAT_ID><ELEMENT_SET_NO>999</ELEMENT_SET_NO><REV_AT_EPOCH>207</REV_AT_EPOCH><BSTAR>-.24317E-2</BSTAR><MEAN_MOTION_DOT>-.904712E-2</MEAN_MOTION_DOT><MEAN_MOTION_DDOT>.25539E-3</MEAN_MOTION_DDOT></tleParameters></data></segment></body></omm>
<omm id="CCSDS_OMM_VERS" version="2.0">
<header><CREATION_DATE/><ORIGINATOR/></header><body><segment><metadata><OBJECT_NAME>STARLINK-33875</OBJECT_NAME><OBJECT_ID>2025-091Q</OBJECT_ID><CENTER_NAME>EARTH</CENTER_NAME><REF_FRAME>TEME</REF_FRAME><TIME_SYSTEM>UTC</TIME_SYSTEM><MEAN_ELEMENT_THEORY>SGP4</MEAN_ELEMENT_THEORY></metadata><data><meanElements><EPOCH>2025-05-08T04:00:00.999936</EPOCH><MEAN_MOTION>15.93656145</MEAN_MOTION><ECCENTRICITY>.0001789</ECCENTRICITY><INCLINATION>43.0006</INCLINATION><RA_OF_ASC_NODE>347.2100</RA_OF_ASC_NODE><ARG_OF_PERICENTER>267.8993</ARG_OF_PERICENTER><MEAN_ANOMALY>353.2787</MEAN_ANOMALY></meanElements><tleParameters><EPHEMERIS_TYPE>0</EPHEMERIS_TYPE><CLASSIFICATION_TYPE>U</CLASSIFICATION_TYPE><NORAD_CAT_ID>63789</NORAD_CAT_ID><ELEMENT_SET_NO>999</ELEMENT_SET_NO><REV_AT_EPOCH>206</REV_AT_EPOCH><BSTAR>-.22667E-2</BSTAR><MEAN_MOTION_DOT>-.852759E-2</MEAN_MOTION_DOT><MEAN_MOTION_DDOT>.22979E-3</MEAN_MOTION_DDOT></tleParameters></data></segment></body></omm>
<omm id="CCSDS_OMM_VERS" version="2.0">
<header><CREATION_DATE/><ORIGINATOR/></header><body><segment><metadata><OBJECT_NAME>STARLINK-33869</OBJECT_NAME><OBJECT_ID>2025-091R</OBJECT_ID><CENTER_NAME>EARTH</CENTER_NAME><REF_FRAME>TEME</REF_FRAME><TIME_SYSTEM>UTC</TIME_SYSTEM><MEAN_ELEMENT_THEORY>SGP4</MEAN_ELEMENT_THEORY></metadata><data><meanElements><EPOCH>2025-05-07T22:00:01.999584</EPOCH><MEAN_MOTION>15.94143831</MEAN_MOTION><ECCENTRICITY>.0001996</ECCENTRICITY><INCLINATION>43.0008</INCLINATION><RA_OF_ASC_NODE>348.7672</RA_OF_ASC_NODE><ARG_OF_PERICENTER>266.4451</ARG_OF_PERICENTER><MEAN_ANOMALY>359.9853</MEAN_ANOMALY></meanElements><tleParameters><EPHEMERIS_TYPE>0</EPHEMERIS_TYPE><CLASSIFICATION_TYPE>U</CLASSIFICATION_TYPE><NORAD_CAT_ID>63790</NORAD_CAT_ID><ELEMENT_SET_NO>999</ELEMENT_SET_NO><REV_AT_EPOCH>198</REV_AT_EPOCH><BSTAR>-.22166E-2</BSTAR><MEAN_MOTION_DOT>-.855872E-2</MEAN_MOTION_DOT><MEAN_MOTION_DDOT>.23244E-3</MEAN_MOTION_DDOT></tleParameters></data></segment></body></omm>
<omm id="CCSDS_OMM_VERS" version="2.0">
<header><CREATION_DATE/><ORIGINATOR/></header><body><segment><metadata><OBJECT_NAME>STARLINK-33935</OBJECT_NAME><OBJECT_ID>2025-091S</OBJECT_ID><CENTER_NAME>EARTH</CENTER_NAME><REF_FRAME>TEME</REF_FRAME><TIME_SYSTEM>UTC</TIME_SYSTEM><MEAN_ELEMENT_THEORY>SGP4</MEAN_ELEMENT_THEORY></metadata><data><meanElements><EPOCH>2025-05-08T04:00:00.999936</EPOCH><MEAN_MOTION>15.93843027</MEAN_MOTION><ECCENTRICITY>.0002093</ECCENTRICITY><INCLINATION>43.0006</INCLINATION><RA_OF_ASC_NODE>347.2020</RA_OF_ASC_NODE><ARG_OF_PERICENTER>270.6588</ARG_OF_PERICENTER><MEAN_ANOMALY>353.6951</MEAN_ANOMALY></meanElements><tleParameters><EPHEMERIS_TYPE>0</EPHEMERIS_TYPE><CLASSIFICATION_TYPE>U</CLASSIFICATION_TYPE><NORAD_CAT_ID>63791</NORAD_CAT_ID><ELEMENT_SET_NO>999</ELEMENT_SET_NO><REV_AT_EPOCH>217</REV_AT_EPOCH><BSTAR>-.22889E-2</BSTAR><MEAN_MOTION_DOT>-.869624E-2</MEAN_MOTION_DOT><MEAN_MOTION_DDOT>.23856E-3</MEAN_MOTION_DDOT></tleParameters></data></segment></body></omm>
<omm id="CCSDS_OMM_VERS" version="2.0">
<header><CREATION_DATE/><ORIGINATOR/></header><body><segment><metadata><OBJECT_NAME>STARLINK-33916</OBJECT_NAME><OBJECT_ID>2025-091T</OBJECT_ID><CENTER_NAME>EARTH</CENTER_NAME><REF_FRAME>TEME</REF_FRAME><TIME_SYSTEM>UTC</TIME_SYSTEM><MEAN_ELEMENT_THEORY>SGP4</MEAN_ELEMENT_THEORY></metadata><data><meanElements><EPOCH>2025-05-07T22:00:01.999584</EPOCH><MEAN_MOTION>15.94340321</MEAN_MOTION><ECCENTRICITY>.0001769</ECCENTRICITY><INCLINATION>43.0008</INCLINATION><RA_OF_ASC_NODE>348.7594</RA_OF_ASC_NODE><ARG_OF_PERICENTER>265.4645</ARG_OF_PERICENTER><MEAN_ANOMALY>4.0701</MEAN_ANOMALY></meanElements><tleParameters><EPHEMERIS_TYPE>0</EPHEMERIS_TYPE><CLASSIFICATION_TYPE>U</CLASSIFICATION_TYPE><NORAD_CAT_ID>63792</NORAD_CAT_ID><ELEMENT_SET_NO>999</ELEMENT_SET_NO><REV_AT_EPOCH>203</REV_AT_EPOCH><BSTAR>-.22017E-2</BSTAR><MEAN_MOTION_DOT>-.859039E-2</MEAN_MOTION_DOT><MEAN_MOTION_DDOT>.23447E-3</MEAN_MOTION_DDOT></tleParameters></data></segment></body></omm>
<omm id="CCSDS_OMM_VERS" version="2.0">
<header><CREATION_DATE/><ORIGINATOR/></header><body><segment><metadata><OBJECT_NAME>STARLINK-33925</OBJECT_NAME><OBJECT_ID>2025-091U</OBJECT_ID><CENTER_NAME>EARTH</CENTER_NAME><REF_FRAME>TEME</REF_FRAME><TIME_SYSTEM>UTC</TIME_SYSTEM><MEAN_ELEMENT_THEORY>SGP4</MEAN_ELEMENT_THEORY></metadata><data><meanElements><EPOCH>2025-05-07T22:00:01.999584</EPOCH><MEAN_MOTION>15.94423640</MEAN_MOTION><ECCENTRICITY>.0001825</ECCENTRICITY><INCLINATION>43.0009</INCLINATION><RA_OF_ASC_NODE>348.7561</RA_OF_ASC_NODE><ARG_OF_PERICENTER>264.5348</ARG_OF_PERICENTER><MEAN_ANOMALY>6.3224</MEAN_ANOMALY></meanElements><tleParameters><EPHEMERIS_TYPE>0</EPHEMERIS_TYPE><CLASSIFICATION_TYPE>U</CLASSIFICATION_TYPE><NORAD_CAT_ID>63793</NORAD_CAT_ID><ELEMENT_SET_NO>999</ELEMENT_SET_NO><REV_AT_EPOCH>214</REV_AT_EPOCH><BSTAR>-.22161E-2</BSTAR><MEAN_MOTION_DOT>-.868457E-2</MEAN_MOTION_DOT><MEAN_MOTION_DDOT>.23937E-3</MEAN_MOTION_DDOT></tleParameters></data></segment></body></omm>
<omm id="CCSDS_OMM_VERS" version="2.0">
<header><CREATION_DATE/><ORIGINATOR/></header><body><segment><metadata><OBJECT_NAME>STARLINK-33870</OBJECT_NAME><OBJECT_ID>2025-091V</OBJECT_ID><CENTER_NAME>EARTH</CENTER_NAME><REF_FRAME>TEME</REF_FRAME><TIME_SYSTEM>UTC</TIME_SYSTEM><MEAN_ELEMENT_THEORY>SGP4</MEAN_ELEMENT_THEORY></metadata><data><meanElements><EPOCH>2025-05-07T22:00:01.999584</EPOCH><MEAN_MOTION>15.94530058</MEAN_MOTION><ECCENTRICITY>.0001737</ECCENTRICITY><INCLINATION>43.0011</INCLINATION><RA_OF_ASC_NODE>348.7523</RA_OF_ASC_NODE><ARG_OF_PERICENTER>262.3263</ARG_OF_PERICENTER><MEAN_ANOMALY>10.1813</MEAN_ANOMALY></meanElements><tleParameters><EPHEMERIS_TYPE>0</EPHEMERIS_TYPE><CLASSIFICATION_TYPE>U</CLASSIFICATION_TYPE><NORAD_CAT_ID>63794</NORAD_CAT_ID><ELEMENT_SET_NO>999</ELEMENT_SET_NO><REV_AT_EPOCH>203</REV_AT_EPOCH><BSTAR>-.22011E-2</BSTAR><MEAN_MOTION_DOT>-.867511E-2</MEAN_MOTION_DOT><MEAN_MOTION_DDOT>.23915E-3</MEAN_MOTION_DDOT></tleParameters></data></segment></body></omm>

</ndm>